BEIJING 1               
1 28890U 05043A   25036.57415232  .00000953  00000+0  19520-3 0  9990
2 28890  98.2231 164.2205 0015487  39.6732 320.5599 14.62946553 28029
HUANJING 1A (HJ-1A)     
1 33320U 08041A   25036.60830081  .00003532  00000+0  45065-3 0  9991
2 33320  97.6377  38.4632 0018799 332.3205  27.7007 14.81949269884804
HUANJING 1B (HJ-1B)     
1 33321U 08041B   25036.60746563  .00002756  00000+0  35220-3 0  9992
2 33321  97.6286  42.8147 0037852  14.7390 345.4918 14.81683028884833
YAOGAN-4                
1 33446U 08061A   25036.38066641  .00002876  00000+0  37384-3 0  9995
2 33446  97.8968 330.2976 0013265 245.7741 114.2086 14.81415129872067
DEIMOS-1                
1 35681U 09041A   25036.54915896  .00001667  00000+0  25933-3 0  9994
2 35681  97.6874 212.2534 0001862  40.8146 319.3202 14.74243143833686
UK-DMC 2                
1 35683U 09041C   25036.59352252  .00002367  00000+0  36203-3 0  9992
2 35683  97.8089 181.3187 0001490  86.4003 273.7377 14.74637583833347
DMC3-FM1                
1 40715U 15032A   25036.63463772  .00001767  00000+0  21468-3 0  9996
2 40715  97.7184 274.3996 0004261 241.6894 118.3891 14.84713672516200
DMC3-FM2                
1 40716U 15032B   25036.58963507  .00001752  00000+0  21297-3 0  9996
2 40716  97.7240 275.5839 0006034 249.2965 110.7603 14.84712462516197
DMC3-FM3                
1 40717U 15032C   25036.62889648  .00001752  00000+0  21341-3 0  9995
2 40717  97.7293 277.0110 0007493 246.6704 113.3723 14.84616328516205
